NORAD_CAT_ID,OBJECT_NAME,OBJECT_TYPE,EPOCH,MEAN_MOTION,ECCENTRICITY,INCLINATION,RA_OF_ASC_NODE,ARG_OF_PERICENTER,MEAN_ANOMALY,BSTAR,MEAN_MOTION_DOT,MEAN_MOTION_DDOT,TLE_LINE0,TLE_LINE1,TLE_LINE2,SEMIMAJOR_AXIS,PERIOD,APOGEE,PERIGEE,DECAYED
55744.0,STARLINK-5601,PAYLOAD,2024-04-05 14:53:30,14.98338979,0.0003071,70.0006,217.2846,269.3351,90.7457,8.6732e-05,9.42e-06,0.0,0 STARLINK-5601,1 55744U 23028D   24096.62049078  .00000942  00000-0  86732-4 0  9992,2 55744  70.0006 217.2846 0003071 269.3351  90.7457 14.98338979 60728,6950.165,96.106,574.165,569.896,0.0
55744.0,STARLINK-5601,PAYLOAD,2024-04-05 18:05:46,14.9833997,0.0003053,70.0007,216.948,269.4979,90.583,9.7604e-05,1.072e-05,0.0,0 STARLINK-5601,1 55744U 23028D   24096.75400932  .00001072  00000-0  97604-4 0  9991,2 55744  70.0007 216.9480 0003053 269.4979  90.5830 14.98339970 60743,6950.162,96.106,574.149,569.905,0.0
55744.0,STARLINK-5601,PAYLOAD,2024-04-06 10:07:07,14.98322712,0.0002796,70.0014,215.2652,271.8082,88.2757,0.00015104,1.709e-05,0.0,0 STARLINK-5601,1 55744U 23028D   24097.42161846  .00001709  00000-0  15104-3 0  9995,2 55744  70.0014 215.2652 0002796 271.8082  88.2757 14.98322712 60848,6950.215,96.107,574.024,570.137,0.0
55744.0,STARLINK-5601,PAYLOAD,2024-04-06 14:55:31,14.98369725,0.0002687,70.0014,214.7603,265.9794,94.1058,-0.00068522,-8.268e-05,0.0,0 STARLINK-5601,1 55744U 23028D   24097.62188713 -.00008268  00000-0 -68522-3 0  9990,2 55744  70.0014 214.7603 0002687 265.9794  94.1058 14.98369725 60879,6950.07,96.104,573.803,570.068,0.0
55744.0,STARLINK-5601,PAYLOAD,2024-04-06 18:07:47,14.98367139,0.0002714,70.0014,214.4237,267.5978,92.4871,-0.00068366,-8.248e-05,0.0,0 STARLINK-5601,1 55744U 23028D   24097.75540643 -.00008248  00000-0 -68366-3 0  9992,2 55744  70.0014 214.4237 0002714 267.5978  92.4871 14.98367139 60895,6950.078,96.105,573.829,570.057,0.0
55744.0,STARLINK-5601,PAYLOAD,2024-04-07 10:09:09,14.98325663,0.0002982,70.0009,212.7406,270.8797,89.202,-9.2603e-05,-1.198e-05,0.0,0 STARLINK-5601,1 55744U 23028D   24098.42302274 -.00001198  00000-0 -92603-4 0  9992,2 55744  70.0009 212.7406 0002982 270.8797  89.2020 14.98325663 60998,6950.206,96.107,574.144,569.999,0.0
55744.0,STARLINK-5601,PAYLOAD,2024-04-07 18:09:49,14.98329323,0.0002954,70.0009,211.8996,267.8115,92.2706,-6.021e-05,-8.11e-06,0.0,0 STARLINK-5601,1 55744U 23028D   24098.75682005 -.00000811  00000-0 -60210-4 0  9991,2 55744  70.0009 211.8996 0002954 267.8115  92.2706 14.98329323 61040,6950.195,96.107,574.113,570.007,0.0
55744.0,STARLINK-5601,PAYLOAD,2024-04-08 00:34:21,14.98335915,0.0003023,70.001,211.2263,268.6448,91.4365,-0.0001305,-1.65e-05,0.0,0 STARLINK-5601,1 55744U 23028D   24099.02385718 -.00001650  00000-0 -13050-3 0  9994,2 55744  70.0010 211.2263 0003023 268.6448  91.4365 14.98335915 61089,6950.175,96.107,574.141,569.939,0.0
55744.0,STARLINK-5601,PAYLOAD,2024-04-08 13:23:25,14.98332812,0.0003063,70.0006,209.8794,270.7304,89.3504,9.1436e-05,9.98e-06,0.0,0 STARLINK-5601,1 55744U 23028D   24099.55793443  .00000998  00000-0  91436-4 0  9997,2 55744  70.0006 209.8794 0003063 270.7304  89.3504 14.98332812 61168,6950.184,96.107,574.178,569.92,0.0
55744.0,STARLINK-5601,PAYLOAD,2024-04-09 10:13:10,14.98328835,0.0003123,70.0007,207.6914,270.2324,89.8477,0.00013436,1.51e-05,0.0,0 STARLINK-5601,1 55744U 23028D   24100.42581574  .00001510  00000-0  13436-3 0  9990,2 55744  70.0007 207.6914 0003123 270.2324  89.8477 14.98328835 61291,6950.196,96.107,574.232,569.891,0.0
55744.0,STARLINK-5601,PAYLOAD,2024-04-10 13:27:27,14.98335891,0.0003077,70.0002,204.8293,269.8611,90.2196,2.5047e-05,2.06e-06,0.0,0 STARLINK-5601,1 55744U 23028D   24101.56073197  .00000206  00000-0  25047-4 0  9996,2 55744  70.0002 204.8293 0003077 269.8611  90.2196 14.98335891 61469,6950.175,96.107,574.178,569.901,0.0
55744.0,STARLINK-5601,PAYLOAD,2024-04-10 16:39:43,14.98336719,0.0003045,70.0003,204.4926,269.915,90.166,3.2202e-05,2.91e-06,0.0,0 STARLINK-5601,1 55744U 23028D   24101.69425076  .00000291  00000-0  32202-4 0  9992,2 55744  70.0003 204.4926 0003045 269.9150  90.1660 14.98336719 61480,6950.172,96.107,574.153,569.921,0.0
55744.0,STARLINK-5601,PAYLOAD,2024-04-11 13:29:28,14.98331467,0.000306,70.0008,202.3062,269.0541,91.0267,7.4427e-06,-4e-08,0.0,0 STARLINK-5601,1 55744U 23028D   24102.56213329 -.00000004  00000-0  74427-5 0  9994,2 55744  70.0008 202.3062 0003060 269.0541  91.0267 14.98331467 61618,6950.188,96.107,574.18,569.927,0.0
55744.0,STARLINK-5601,PAYLOAD,2024-04-11 16:41:44,14.98332268,0.0003164,70.001,201.9699,270.9689,89.1108,-1.5133e-05,-2.74e-06,0.0,0 STARLINK-5601,1 55744U 23028D   24102.69565322 -.00000274  00000-0 -15133-4 0  9999,2 55744  70.0010 201.9699 0003164 270.9689  89.1108 14.98332268 61635,6950.186,96.107,574.25,569.852,0.0
55744.0,STARLINK-5601,PAYLOAD,2024-04-12 13:31:29,14.98328737,0.0002924,70.0013,199.7817,267.9328,92.1496,4.7365e-05,4.72e-06,0.0,0 STARLINK-5601,1 55744U 23028D   24103.56353382  .00000472  00000-0  47365-4 0  9997,2 55744  70.0013 199.7817 0002924 267.9328  92.1496 14.98328737 61767,6950.197,96.107,574.094,570.03,0.0
55744.0,STARLINK-5601,PAYLOAD,2024-04-12 15:07:37,14.9832886,0.0002783,70.0013,199.6132,265.2202,94.864,7.2499e-05,7.72e-06,0.0,0 STARLINK-5601,1 55744U 23028D   24103.63029329  .00000772  00000-0  72499-4 0  9995,2 55744  70.0013 199.6132 0002783 265.2202  94.8640 14.98328860 61779,6950.196,96.107,573.996,570.127,0.0
55744.0,STARLINK-5601,PAYLOAD,2024-04-13 11:57:22,14.98323761,0.0003139,70.0008,197.424,275.6542,84.4259,2.0004e-05,1.46e-06,0.0,0 STARLINK-5601,1 55744U 23028D   24104.49818002  .00000146  00000-0  20004-4 0  9994,2 55744  70.0008 197.4240 0003139 275.6542  84.4259 14.98323761 61908,6950.212,96.107,574.259,569.896,0.0
55744.0,STARLINK-5601,PAYLOAD,2024-04-13 13:33:30,14.98323704,0.0003077,70.0009,197.2558,273.9572,86.1235,1.9732e-05,1.42e-06,0.0,0 STARLINK-5601,1 55744U 23028D   24104.56494025  .00000142  00000-0  19732-4 0  9999,2 55744  70.0009 197.2558 0003077 273.9572  86.1235 14.98323704 61915,6950.212,96.107,574.216,569.939,0.0
55744.0,STARLINK-5601,PAYLOAD,2024-04-13 16:45:46,14.98324708,0.0002863,70.0012,196.9198,267.6195,92.4636,4.3835e-05,4.3e-06,0.0,0 STARLINK-5601,1 55744U 23028D   24104.69845941  .00000430  00000-0  43835-4 0  9991,2 55744  70.0012 196.9198 0002863 267.6195  92.4636 14.98324708 61930,6950.209,96.107,574.064,570.084,0.0
55744.0,STARLINK-5601,PAYLOAD,2024-04-14 11:59:23,14.98330712,0.0003141,70.001,194.9,272.805,87.2749,6.4147e-05,6.72e-06,0.0,0 STARLINK-5601,1 55744U 23028D   24105.49957617  .00000672  00000-0  64147-4 0  9991,2 55744  70.0010 194.9000 0003141 272.8050  87.2749 14.98330712 62059,6950.191,96.107,574.239,569.873,0.0
55744.0,STARLINK-5601,PAYLOAD,2024-04-14 15:11:39,14.98334905,0.000291,70.0013,194.5636,266.6334,93.4492,0.00011741,1.308e-05,0.0,0 STARLINK-5601,1 55744U 23028D   24105.63309178  .00001308  00000-0  11741-3 0  9998,2 55744  70.0013 194.5636 0002910 266.6334  93.4492 14.98334905 62076,6950.178,96.107,574.065,570.02,0.0
55744.0,STARLINK-5601,PAYLOAD,2024-04-15 12:01:23,14.98334186,0.0002883,70.0014,192.3756,264.7301,95.3529,0.00014247,1.608e-05,0.0,0 STARLINK-5601,1 55744U 23028D   24106.50097031  .00001608  00000-0  14247-3 0  9994,2 55744  70.0014 192.3756 0002883 264.7301  95.3529 14.98334186 62206,6950.18,96.107,574.049,570.041,0.0
55744.0,STARLINK-5601,PAYLOAD,2024-04-15 13:37:31,14.98335943,0.000285,70.0014,192.2073,263.8224,96.2611,0.0001627,1.849e-05,0.0,0 STARLINK-5601,1 55744U 23028D   24106.56772857  .00001849  00000-0  16270-3 0  9991,2 55744  70.0014 192.2073 0002850 263.8224  96.2611 14.98335943 62210,6950.175,96.107,574.02,570.059,0.0
55744.0,STARLINK-5601,PAYLOAD,2024-04-16 12:03:24,14.98341083,0.0002968,70.001,189.8513,267.9015,92.1804,7.0308e-05,7.46e-06,0.0,0 STARLINK-5601,1 55744U 23028D   24107.50236571  .00000746  00000-0  70308-4 0  9992,2 55744  70.0010 189.8513 0002968 267.9015  92.1804 14.98341083 62356,6950.159,96.106,574.086,569.961,0.0
55744.0,STARLINK-5601,PAYLOAD,2024-04-16 13:39:32,14.98340202,0.0002773,70.0013,189.6813,268.7901,91.294,7.3585e-05,7.85e-06,0.0,0 STARLINK-5601,1 55744U 23028D   24107.56912554  .00000785  00000-0  73585-4 0  9993,2 55744  70.0013 189.6813 0002773 268.7901  91.2940 14.98340202 62361,6950.161,96.106,573.954,570.099,0.0
55744.0,STARLINK-5601,PAYLOAD,2024-04-17 12:05:26,14.98316627,0.0003661,70.0006,187.326,280.9886,79.0861,-0.00023212,-2.861e-05,0.0,0 STARLINK-5601,1 55744U 23028D   24108.50378462 -.00002861  00000-0 -23212-3 0  9992,2 55744  70.0006 187.3260 0003661 280.9886  79.0861 14.98316627 62505,6950.234,96.108,574.644,569.555,0.0
55744.0,STARLINK-5601,PAYLOAD,2024-04-17 13:41:39,14.98257549,0.000309,70.0001,187.1564,266.7803,93.3002,-0.00089498,-0.00010735,0.0,0 STARLINK-5601,1 55744U 23028D   24108.57059736 -.00010735  00000-0 -89498-3 0  9996,2 55744  70.0001 187.1564 0003090 266.7803  93.3002 14.98257549 62516,6950.417,96.112,574.43,570.134,0.0
55744.0,STARLINK-5601,PAYLOAD,2024-04-17 15:17:48,14.9825412,0.0003077,70.0,186.9878,257.1408,102.9407,-0.00091624,-0.00010987,0.0,0 STARLINK-5601,1 55744U 23028D   24108.63736175 -.00010987  00000-0 -91624-3 0  9995,2 55744  70.0000 186.9878 0003077 257.1408 102.9407 14.98254120 62529,6950.428,96.112,574.431,570.154,0.0
55744.0,STARLINK-5601,PAYLOAD,2024-04-18 12:07:27,14.98338235,0.0003049,70.0011,184.8018,258.4315,101.6501,0.00013688,1.541e-05,0.0,0 STARLINK-5601,1 55744U 23028D   24109.50517842  .00001541  00000-0  13688-3 0  9998,2 55744  70.0011 184.8018 0003049 258.4315 101.6501 14.98338235 62659,6950.167,96.106,574.152,569.913,0.0
55744.0,STARLINK-5601,PAYLOAD,2024-04-18 13:43:35,14.98340466,0.0003072,70.0012,184.6342,256.327,103.7547,0.00015735,1.785e-05,0.0,0 STARLINK-5601,1 55744U 23028D   24109.57193600  .00001785  00000-0  15735-3 0  9992,2 55744  70.0012 184.6342 0003072 256.3270 103.7547 14.98340466 62664,6950.161,96.106,574.161,569.89,0.0
